NORAD_CAT_ID,OBJECT_NAME,OBJECT_TYPE,EPOCH,MEAN_MOTION,ECCENTRICITY,INCLINATION,RA_OF_ASC_NODE,ARG_OF_PERICENTER,MEAN_ANOMALY,BSTAR,MEAN_MOTION_DOT,MEAN_MOTION_DDOT,TLE_LINE0,TLE_LINE1,TLE_LINE2,SEMIMAJOR_AXIS,PERIOD,APOGEE,PERIGEE,DECAYED
51968.0,STARLINK-3681,PAYLOAD,2022-09-13 16:00:00,15.08843091,0.0001691,53.2185,343.9394,49.3341,134.2004,0.0011025,0.00017303,0.0,0 STARLINK-3681,1 51968U 22025N   22256.66667824  .00017303  00000-0  11025-2 0  9997,2 51968  53.2185 343.9394 0001691  49.3341 134.2004 15.08843091 30120,6917.871,95.437,540.906,538.566,0.0
51968.0,STARLINK-3681,PAYLOAD,2022-09-13 22:00:00,15.08859372,0.0001585999999999,53.2186,342.8163,52.1485,50.0669,-0.0048021999999999,-0.0007595,0.0,0 STARLINK-3681,1 51968U 22025N   22256.91667824 -.00075950  00000-0 -48022-2 0  9996,2 51968  53.2186 342.8163 0001586  52.1485  50.0669 15.08859372  1306,6917.821,95.436,540.783,538.589,0.0
51968.0,STARLINK-3681,PAYLOAD,2022-09-14 06:00:00,15.08809998,0.0001512,53.2186,341.3192,57.6723,56.1316,0.0016617,0.00026235,0.0,0 STARLINK-3681,1 51968U 22025N   22257.25001157  .00026235  00000-0  16617-2 0  9990,2 51968  53.2186 341.3192 0001512  57.6723  56.1316 15.08809998 30213,6917.972,95.439,540.883,538.7909999999998,0.0
51968.0,STARLINK-3681,PAYLOAD,2022-09-14 14:00:01,15.08814252,0.0001692,53.2186,339.8247,50.3177,75.0595,0.0018072,0.0002856999999999,0.0,0 STARLINK-3681,1 51968U 22025N   22257.58334491  .00028570  00000-0  18072-2 0  9997,2 51968  53.2186 339.8247 0001692  50.3177  75.0595 15.08814252  1304,6917.959,95.439,540.995,538.654,0.0
51968.0,STARLINK-3681,PAYLOAD,2022-09-14 22:00:00,15.08870696,0.0001617,53.2179,338.3263,49.5628,87.385,-0.0049333,-0.00078018,0.0,0 STARLINK-3681,1 51968U 22025N   22257.91667824 -.00078018  00000-0 -49333-2 0  9991,2 51968  53.2179 338.3263 0001617  49.5628  87.3850 15.08870696  1300,6917.7869999999975,95.436,540.77,538.533,0.0
51968.0,STARLINK-3681,PAYLOAD,2022-09-15 06:00:00,15.08858956,0.000166,53.2188,336.8302,57.1229,91.4277,-0.0013935,-0.00022409,0.0,0 STARLINK-3681,1 51968U 22025N   22258.25001157 -.00022409  00000-0 -13935-2 0  9992,2 51968  53.2188 336.8302 0001660  57.1229  91.4277 15.08858956 30369,6917.821999999999,95.436,540.836,538.539,0.0
51968.0,STARLINK-3681,PAYLOAD,2022-09-15 14:00:01,15.08827088,0.0001857,53.2188,335.3356,50.9298,109.2279,0.0010275,0.00016097,0.0,0 STARLINK-3681,1 51968U 22025N   22258.58334491  .00016097  00000-0  10275-2 0  9996,2 51968  53.2188 335.3356 0001857  50.9298 109.2279 15.08827088  1301,6917.92,95.438,541.07,538.5,0.0
51968.0,STARLINK-3681,PAYLOAD,2022-09-15 16:00:00,15.08825689,0.0001839,53.2187,334.9617,49.3051,203.7502,0.0013297,0.00020929,0.0,0 STARLINK-3681,1 51968U 22025N   22258.66667824  .00020929  00000-0  13297-2 0  9990,2 51968  53.2187 334.9617 0001839  49.3051 203.7502 15.08825689  1308,6917.924,95.438,541.061,538.5169999999998,0.0
51968.0,STARLINK-3681,PAYLOAD,2022-09-16 11:33:01,15.0881205,0.0001745,53.2204,331.3033,56.2278,303.888,0.00027745,4.127e-05,0.0,0 STARLINK-3681,1 51968U 22025N   22259.48126726  .00004127  00000-0  27745-3 0  9998,2 51968  53.2204 331.3033 0001745  56.2278 303.8880 15.08812050 29449,6917.965999999999,95.439,541.038,538.624,0.0
51968.0,STARLINK-3681,PAYLOAD,2022-09-17 05:02:15,15.08836893,0.0001652,53.2194,328.035,64.0034,296.1128,-0.00012219,-2.232e-05,0.0,0 STARLINK-3681,1 51968U 22025N   22260.20990595 -.00002232  00000-0 -12219-3 0  9990,2 51968  53.2194 328.0350 0001652  64.0034 296.1128 15.08836893 30651,6917.89,95.438,540.898,538.612,0.0
51968.0,STARLINK-3681,PAYLOAD,2022-09-17 11:23:48,15.08832937,0.0001646,53.2195,326.8436,51.5955,308.5184,-7.2616e-05,-1.443e-05,0.0,0 STARLINK-3681,1 51968U 22025N   22260.47486800 -.00001443  00000-0 -72616-4 0  9999,2 51968  53.2195 326.8436 0001646  51.5955 308.5184 15.08832937 29595,6917.901999999999,95.438,540.906,538.628,0.0
51968.0,STARLINK-3681,PAYLOAD,2022-09-17 20:56:07,15.08835054,0.0001682,53.2197,325.0597,50.2012,309.9128,2.1055e-05,4.7e-07,0.0,0 STARLINK-3681,1 51968U 22025N   22260.87230498  .00000047  00000-0  21055-4 0  9991,2 51968  53.2197 325.0597 0001682  50.2012 309.9128 15.08835054 29659,6917.896,95.438,540.924,538.597,0.0
51968.0,STARLINK-3681,PAYLOAD,2022-09-18 09:39:12,15.08832751,0.0001351999999999,53.2212,322.6808,50.5003,309.6108,-2.9556e-05,-7.58e-06,0.0,0 STARLINK-3681,1 51968U 22025N   22261.40222929 -.00000758  00000-0 -29556-4 0  9996,2 51968  53.2212 322.6808 0001352  50.5003 309.6108 15.08832751 29737,6917.903,95.438,540.703,538.832,0.0
51968.0,STARLINK-3681,PAYLOAD,2022-09-18 20:46:54,15.08828624,0.0001428,53.2199,320.5988,76.7631,283.3520000000001,1.0955e-05,-1.14e-06,0.0,0 STARLINK-3681,1 51968U 22025N   22261.86591347 -.00000114  00000-0  10955-4 0  9997,2 51968  53.2199 320.5988 0001428  76.7631 283.3520 15.08828624 29806,6917.915,95.438,540.768,538.7919999999998,0.0
51968.0,STARLINK-3681,PAYLOAD,2022-09-19 09:29:59,15.0883716,0.0001664,53.2196,318.2207,51.9839,308.1303,0.00015489,2.178e-05,0.0,0 STARLINK-3681,1 51968U 22025N   22262.39582683  .00002178  00000-0  15489-3 0  9996,2 51968  53.2196 318.2207 0001664  51.9839 308.1303 15.08837160 30989,6917.889,95.438,540.905,538.6030000000002,0.0
51968.0,STARLINK-3681,PAYLOAD,2022-09-19 11:05:22,15.0883793,0.0001671,53.2196,317.9233,51.5899,308.5243,0.00015929,2.248e-05,0.0,0 STARLINK-3681,1 51968U 22025N   22262.46206651  .00002248  00000-0  15929-3 0  9999,2 51968  53.2196 317.9233 0001671  51.5899 308.5243 15.08837930 29894,6917.887,95.438,540.908,538.596,0.0
51968.0,STARLINK-3681,PAYLOAD,2022-09-19 20:37:42,15.08829982,0.0001613,53.2196,316.1393,47.8402,312.2727,1.7782e-05,-5e-08,0.0,0 STARLINK-3681,1 51968U 22025N   22262.85951786 -.00000005  00000-0  17782-4 0  9998,2 51968  53.2196 316.1393 0001613  47.8402 312.2727 15.08829982 29950,6917.911,95.438,540.8919999999998,538.66,0.0
51968.0,STARLINK-3681,PAYLOAD,2022-09-19 22:13:05,15.08830223,0.0001628,53.2198,315.8419,49.1031,311.0102,8.9336e-06,-1.46e-06,0.0,0 STARLINK-3681,1 51968U 22025N   22262.92575839 -.00000146  00000-0  89336-5 0  9998,2 51968  53.2198 315.8419 0001628  49.1031 311.0102 15.08830223 31065,6917.91,95.438,540.9019999999998,538.649,0.0
51968.0,STARLINK-3681,PAYLOAD,2022-09-20 12:31:33,15.08833904,0.0001766,53.2195,313.1659,47.7924,312.3218,0.00010958,1.456e-05,0.0,0 STARLINK-3681,1 51968U 22025N   22263.52191570  .00001456  00000-0  10958-3 0  9997,2 51968  53.2195 313.1659 0001766  47.7924 312.3218 15.08833904 30056,6917.899,95.438,540.986,538.5419999999998,0.0
51968.0,STARLINK-3681,PAYLOAD,2022-09-21 09:11:34,15.08834114,0.0001818,53.2198,309.3003,51.3169,308.7985,-3.5028000000000004e-05,-8.45e-06,0.0,0 STARLINK-3681,1 51968U 22025N   22264.38304251 -.00000845  00000-0 -35028-4 0  9993,2 51968  53.2198 309.3003 0001818  51.3169 308.7985 15.08834114 30187,6917.898,95.438,541.021,538.506,0.0
51968.0,STARLINK-3681,PAYLOAD,2022-09-21 23:30:02,15.08836765,0.0001891,53.2199,306.6249,44.0598,316.0544,5.1688e-05,5.35e-06,0.0,0 STARLINK-3681,1 51968U 22025N   22264.97919942  .00000535  00000-0  51688-4 0  9991,2 51968  53.2199 306.6249 0001891  44.0598 316.0544 15.08836765 31375,6917.89,95.438,541.063,538.447,0.0
51968.0,STARLINK-3681,PAYLOAD,2022-09-22 09:02:21,15.08843243,0.0001875999999999,53.2191,304.8395,52.6967,307.4196,8.3544e-05,1.042e-05,0.0,0 STARLINK-3681,1 51968U 22025N   22265.37663433  .00001042  00000-0  83544-4 0  9997,2 51968  53.2191 304.8395 0001876  52.6967 307.4196 15.08843243 30338,6917.87,95.437,541.033,538.438,0.0
51968.0,STARLINK-3681,PAYLOAD,2022-09-22 23:20:48,15.08865937,0.0001950999999999,53.219,302.1633,48.633,311.4829,-0.00020803,-3.6e-05,0.0,0 STARLINK-3681,1 51968U 22025N   22265.97278527 -.00003600  00000-0 -20803-3 0  9991,2 51968  53.2190 302.1633 0001951  48.6330 311.4829 15.08865937 31520,6917.801,95.436,541.016,538.316,0.0
51968.0,STARLINK-3681,PAYLOAD,2022-09-23 08:53:08,15.08834916,0.0001879,53.2192,300.3788,52.81,307.3063,7.792899999999999e-05,9.52e-06,0.0,0 STARLINK-3681,1 51968U 22025N   22266.37023891  .00000952  00000-0  77929-4 0  9995,2 51968  53.2192 300.3788 0001879  52.8100 307.3063 15.08834916 31587,6917.896,95.438,541.061,538.461,0.0
51968.0,STARLINK-3681,PAYLOAD,2022-09-23 23:11:36,15.088478899999998,0.0001883,53.2191,297.7021,49.1148,311.0007,6.0031e-05,6.68e-06,0.0,0 STARLINK-3681,1 51968U 22025N   22266.96639067  .00000668  00000-0  60031-4 0  9998,2 51968  53.2191 297.7021 0001883  49.1148 311.0007 15.08847890 31676,6917.856,95.437,541.024,538.419,0.0
51968.0,STARLINK-3681,PAYLOAD,2022-09-24 08:43:54,15.08854308,0.0001888,53.2189,295.9175,51.6443,308.4718,0.00011222,1.499e-05,0.0,0 STARLINK-3681,1 51968U 22025N   22267.36382303  .00001499  00000-0  11222-3 0  9991,2 51968  53.2189 295.9175 0001888  51.6443 308.4718 15.08854308 30630,6917.837,95.437,541.008,538.396,0.0
51968.0,STARLINK-3681,PAYLOAD,2022-09-25 08:34:42,15.08836233,0.0002089999999999,53.2188,291.4579,41.1838,318.9311,3.3433e-05,2.44e-06,0.0,0 STARLINK-3681,1 51968U 22025N   22268.35743319  .00000244  00000-0  33433-4 0  9995,2 51968  53.2188 291.4579 0002090  41.1838 318.9311 15.08836233 31886,6917.892,95.438,541.203,538.311,0.0
51968.0,STARLINK-3681,PAYLOAD,2022-09-26 08:25:29,15.0884079,0.0002029999999999,53.2186,286.9962,45.4344,314.6814,-4.523e-05,-1.008e-05,0.0,0 STARLINK-3681,1 51968U 22025N   22269.35103229 -.00001008  00000-0 -45230-4 0  9995,2 51968  53.2186 286.9962 0002030  45.4344 314.6814 15.08840790 30931,6917.878000000002,95.438,541.1469999999998,538.339,0.0
51968.0,STARLINK-3681,PAYLOAD,2022-09-26 17:57:48,15.08829823,0.0001645,53.2196,285.217,66.0601,294.0563,-5.8693e-05,-1.222e-05,0.0,0 STARLINK-3681,1 51968U 22025N   22269.74848130 -.00001222  00000-0 -58693-4 0  9990,2 51968  53.2196 285.2170 0001645  66.0601 294.0563 15.08829823 32096,6917.911,95.438,540.914,538.638,0.0
